0 ARIANE 44LP R/B
1 19689U 88109C   13281.78816241  .00000205  00000-0  12257-2 0  8637
2 19689 007.1167 295.9967 7191399 354.9862 153.7867 02.28224837171813
0 ARIANE 44LP R/B
1 19689U 88109C   13283.14454971  .00000220  00000-0  12766-2 0  8640
2 19689 007.1120 295.4760 7191305 356.0217 188.2072 02.28225982171848
0 ARIANE 44LP R/B
1 19689U 88109C   13286.59947324  .00000248  00000-0  12812-2 0  8665
2 19689 007.0995 294.1441 7191184 358.6649 146.8163 02.28227972171922
0 ARIANE 44LP R/B
1 19689U 88109C   13287.81326646  .00000230  00000-0  11986-2 0  8672
2 19689 007.0949 293.6743 7191127 359.5958 064.0878 02.28229339171945
0 ARIANE 44LP R/B
1 19689U 88109C   13289.16973034  .00000170  00000-0  97514-3 0  8687
2 19689 007.0898 293.1483 7191107 000.6359 098.5840 02.28230616171986
0 ARIANE 44LP R/B
1 19689U 88109C   13290.36404916  .00000183  00000-0  88440-3 0  8692
2 19689 007.0851 292.6578 7191764 001.5979 359.8673 02.28229108172017
0 ARIANE 44LP R/B
1 19689U 88109C   13290.40262260  .00000149  00000-0  97668-3 0  8695
2 19689 007.0851 292.6697 7191074 001.5823 031.5595 02.28231107172009
0 ARIANE 44LP R/B
1 19689U 88109C   13292.12749150  .00000132  00000-0  10494-2 0  8709
2 19689 007.0785 291.9996 7191069 002.9054 008.7631 02.28231741172049
0 ARIANE 44LP R/B
1 19689U 88109C   13293.12878623  .00000129  00000-0  11027-2 0  8718
2 19689 007.0747 291.6099 7191059 003.6739 111.4589 02.28232174172073
0 ARIANE 44LP R/B
1 19689U 88109C   13294.33165638  .00000129  00000-0  11374-2 0  8723
2 19689 007.0700 291.1416 7191065 004.5977 019.7778 02.28232722172092
0 ARIANE 44LP R/B
1 19689U 88109C   13295.46198601  .00000155  00000-0  12444-2 0  8733
2 19689 007.0656 290.7008 7191070 005.4663 228.4964 02.28233338172126
